[
{
"OBJECT_NAME": "ONEWEB-0195",
"OBJECT_ID": "2021-031AG",
"EPOCH": "2021-05-14T04:00:00.999936",
"MEAN_MOTION": 15.27578803,
"ECCENTRICITY": 0.0006925,
"INCLINATION": 87.404,
"RA_OF_ASC_NODE": 306.7069,
"ARG_OF_PERICENTER": 176.0607,
"MEAN_ANOMALY": 273.6907,
"EPHEMERIS_TYPE": 0,
"CLASSIFICATION_TYPE": "U",
"NORAD_CAT_ID": 48240,
"ELEMENT_SET_NO": 999,
"REV_AT_EPOCH": 278,
"BSTAR": -0.060527,
"MEAN_MOTION_DOT": -0.01472228,
"MEAN_MOTION_DDOT": 0
},
{
"OBJECT_NAME": "ONEWEB-0201",
"OBJECT_ID": "2021-031AH",
"EPOCH": "2021-05-13T12:00:00.999648",
"MEAN_MOTION": 15.42428202,
"ECCENTRICITY": 0.0010814,
"INCLINATION": 87.401,
"RA_OF_ASC_NODE": 306.9032,
"ARG_OF_PERICENTER": 179.5364,
"MEAN_ANOMALY": 169.6339,
"EPHEMERIS_TYPE": 0,
"CLASSIFICATION_TYPE": "U",
"NORAD_CAT_ID": 48241,
"ELEMENT_SET_NO": 999,
"REV_AT_EPOCH": 187,
"BSTAR": -0.00016269,
"MEAN_MOTION_DOT": -0.00006975,
"MEAN_MOTION_DDOT": 0
},
{
"OBJECT_NAME": "ONEWEB-0207",
"OBJECT_ID": "2021-031AJ",
"EPOCH": "2021-05-14T04:00:00.999936",
"MEAN_MOTION": 15.41754721,
"ECCENTRICITY": 0.000823,
"INCLINATION": 87.4,
"RA_OF_ASC_NODE": 306.6669,
"ARG_OF_PERICENTER": 199.0002,
"MEAN_ANOMALY": 189.899,
"EPHEMERIS_TYPE": 0,
"CLASSIFICATION_TYPE": "U",
"NORAD_CAT_ID": 48242,
"ELEMENT_SET_NO": 999,
"REV_AT_EPOCH": 279,
"BSTAR": -0.017394,
"MEAN_MOTION_DOT": -0.00682224,
"MEAN_MOTION_DDOT": 0
},
{
"OBJECT_NAME": "ONEWEB-0208",
"OBJECT_ID": "2021-031AK",
"EPOCH": "2021-05-14T04:00:00.999936",
"MEAN_MOTION": 15.38572178,
"ECCENTRICITY": 0.000651,
"INCLINATION": 87.4023,
"RA_OF_ASC_NODE": 306.6725,
"ARG_OF_PERICENTER": 177.5282,
"MEAN_ANOMALY": 144.997,
"EPHEMERIS_TYPE": 0,
"CLASSIFICATION_TYPE": "U",
"NORAD_CAT_ID": 48243,
"ELEMENT_SET_NO": 999,
"REV_AT_EPOCH": 278,
"BSTAR": -0.042246,
"MEAN_MOTION_DOT": -0.01456149,
"MEAN_MOTION_DDOT": 0
},
{
"OBJECT_NAME": "ONEWEB-0200",
"OBJECT_ID": "2021-031AL",
"EPOCH": "2021-05-14T04:00:00.999936",
"MEAN_MOTION": 15.35316667,
"ECCENTRICITY": 0.0009687,
"INCLINATION": 87.4061,
"RA_OF_ASC_NODE": 306.6874,
"ARG_OF_PERICENTER": 186.5903,
"MEAN_ANOMALY": 72.4333,
"EPHEMERIS_TYPE": 0,
"CLASSIFICATION_TYPE": "U",
"NORAD_CAT_ID": 48244,
"ELEMENT_SET_NO": 999,
"REV_AT_EPOCH": 279,
"BSTAR": -0.047291,
"MEAN_MOTION_DOT": -0.01467861,
"MEAN_MOTION_DDOT": 0
},
{
"OBJECT_NAME": "ONEWEB-0217",
"OBJECT_ID": "2021-031AM",
"EPOCH": "2021-05-14T04:00:00.999936",
"MEAN_MOTION": 15.3014136,
"ECCENTRICITY": 0.0006099,
"INCLINATION": 87.4074,
"RA_OF_ASC_NODE": 306.7046,
"ARG_OF_PERICENTER": 200.8662,
"MEAN_ANOMALY": 312.8625,
"EPHEMERIS_TYPE": 0,
"CLASSIFICATION_TYPE": "U",
"NORAD_CAT_ID": 48245,
"ELEMENT_SET_NO": 999,
"REV_AT_EPOCH": 278,
"BSTAR": -0.055709,
"MEAN_MOTION_DOT": -0.01466422,
"MEAN_MOTION_DDOT": 0
}
]