ONEWEB-0195             
1 48240U 21031AG  21134.16667824 -.01472228  00000-0 -60527-1 0  9995
2 48240  87.4040 306.7069 0006925 176.0607 273.6907 15.27578803  2780
ONEWEB-0201             
1 48241U 21031AH  21133.50001157 -.00006975  00000-0 -16269-3 0  9991
2 48241  87.4010 306.9032 0010814 179.5364 169.6339 15.42428202  1876
ONEWEB-0207             
1 48242U 21031AJ  21134.16667824 -.00682224  00000-0 -17394-1 0  9999
2 48242  87.4000 306.6669 0008230 199.0002 189.8990 15.41754721  2790
ONEWEB-0208             
1 48243U 21031AK  21134.16667824 -.01456149  00000-0 -42246-1 0  9990
2 48243  87.4023 306.6725 0006510 177.5282 144.9970 15.38572178  2788
ONEWEB-0200             
1 48244U 21031AL  21134.16667824 -.01467861  00000-0 -47291-1 0  9999
2 48244  87.4061 306.6874 0009687 186.5903  72.4333 15.35316667  2799
ONEWEB-0217             
1 48245U 21031AM  21134.16667824 -.01466422  00000-0 -55709-1 0  9995
2 48245  87.4074 306.7046 0006099 200.8662 312.8625 15.30141360  2787
